SL-4 R/B                
1 39679U 14021B   26036.67310653  .00019171  00000+0  43274-3 0  9991
2 39679  51.6065 133.3414 0099048 346.3080  13.5221 15.38168742651340
ALOS-2                  
1 39766U 14029A   26037.94591962  .00000193  00000+0  32670-4 0  9994
2 39766  97.9218 136.9854 0001456  96.5542 263.5835 14.79489724632325
YAOGAN-29               
1 41038U 15069A   26037.95932919  .00000642  00000+0  85739-4 0  9999
2 41038  98.0173  66.3014 0002847  87.4570 272.6969 14.82959458551320
ASTRO-H (HITOMI)        
1 41337U 16012A   26037.62954425  .00004541  00000+0  26847-3 0  9996
2 41337  30.9980 196.9497 0009845  20.3428 339.7601 15.09777198547536
HXMT (HUIYAN)           
1 42758U 17034A   26037.90253491  .00009087  00000+0  45674-3 0  9994
2 42758  43.0135 187.7820 0031037  37.9563 322.3465 15.17057041477862
CZ-2C R/B               
1 43521U 18054D   26037.57006065  .00324769  41408-4  80127-3 0  9993
2 43521  35.1293 157.6454 0013108   0.8200 359.2560 15.94764434423900
SAOCOM 1A               
1 43641U 18076A   26037.97566613  .00000740  00000+0  99542-4 0  9994
2 43641  97.8865 226.5842 0001416  82.5373 277.6001 14.82157510396816
H-2A R/B                
1 43682U 18084L   26037.55740747  .00024319  00000+0  60416-3 0  9999
2 43682  98.8758 248.3246 0026318 130.0322 230.3234 15.39977161400987
SAOCOM 1B               
1 46265U 20059A   26037.93940329  .00001222  00000+0  16004-3 0  9996
2 46265  97.8862 225.6466 0001352  84.7239 275.4129 14.82164260294199
CSS (TIANHE)            
1 48274U 21035A   26037.47343961  .00022506  00000+0  28124-3 0  9995
2 48274  41.4680  37.9008 0005396  13.3696 346.7284 15.59287012272733
COSMOS 2550             
1 48865U 21056A   26037.54373139  .00005565  00000+0  17480-3 0  9991
2 48865  67.1450 135.1427 0008293 269.6046  90.4158 15.33839713258683
CZ-2C R/B               
1 52794U 22058K   26037.56507933  .00036716  00000+0  58001-3 0  9999
2 52794  50.1885 118.1246 0042299  68.7202 291.8277 15.52055897205291
