CCSDS_OMM_VERS = 2.0
CREATION_DATE  = 
ORIGINATOR     = 

OBJECT_NAME    = SL-4 R/B
OBJECT_ID      = 2014-021B
CENTER_NAME    = EARTH
REF_FRAME      = TEME
TIME_SYSTEM    = UTC
MEAN_ELEMENT_THEORY = SGP/SGP4

EPOCH          = 2026-02-05T16:09:16.404192
MEAN_MOTION    = 15.38168742
ECCENTRICITY   = .0099048
INCLINATION    = 51.6065
RA_OF_ASC_NODE = 133.3414
ARG_OF_PERICENTER = 346.3080
MEAN_ANOMALY   = 13.5221

EPHEMERIS_TYPE = 0
CLASSIFICATION_TYPE = U
NORAD_CAT_ID   = 39679
ELEMENT_SET_NO = 999
REV_AT_EPOCH   = 65134
BSTAR          = .43274E-3
MEAN_MOTION_DOT = .19171E-3
MEAN_MOTION_DDOT = 0

CCSDS_OMM_VERS = 2.0
CREATION_DATE  = 
ORIGINATOR     = 

OBJECT_NAME    = ALOS-2
OBJECT_ID      = 2014-029A
CENTER_NAME    = EARTH
REF_FRAME      = TEME
TIME_SYSTEM    = UTC
MEAN_ELEMENT_THEORY = SGP/SGP4

EPOCH          = 2026-02-06T22:42:07.455168
MEAN_MOTION    = 14.79489724
ECCENTRICITY   = .00014567
INCLINATION    = 97.9218
RA_OF_ASC_NODE = 136.9854
ARG_OF_PERICENTER = 96.5542
MEAN_ANOMALY   = 263.5835

EPHEMERIS_TYPE = 0
CLASSIFICATION_TYPE = U
NORAD_CAT_ID   = 39766
ELEMENT_SET_NO = 999
REV_AT_EPOCH   = 63232
BSTAR          = .32669618E-4
MEAN_MOTION_DOT = .193E-5
MEAN_MOTION_DDOT = 0

CCSDS_OMM_VERS = 2.0
CREATION_DATE  = 
ORIGINATOR     = 

OBJECT_NAME    = YAOGAN-29
OBJECT_ID      = 2015-069A
CENTER_NAME    = EARTH
REF_FRAME      = TEME
TIME_SYSTEM    = UTC
MEAN_ELEMENT_THEORY = SGP/SGP4

EPOCH          = 2026-02-06T23:01:26.042016
MEAN_MOTION    = 14.82959458
ECCENTRICITY   = .00028472
INCLINATION    = 98.0173
RA_OF_ASC_NODE = 66.3014
ARG_OF_PERICENTER = 87.4570
MEAN_ANOMALY   = 272.6969

EPHEMERIS_TYPE = 0
CLASSIFICATION_TYPE = U
NORAD_CAT_ID   = 41038
ELEMENT_SET_NO = 999
REV_AT_EPOCH   = 55132
BSTAR          = .8573878E-4
MEAN_MOTION_DOT = .642E-5
MEAN_MOTION_DDOT = 0

CCSDS_OMM_VERS = 2.0
CREATION_DATE  = 
ORIGINATOR     = 

OBJECT_NAME    = ASTRO-H (HITOMI)
OBJECT_ID      = 2016-012A
CENTER_NAME    = EARTH
REF_FRAME      = TEME
TIME_SYSTEM    = UTC
MEAN_ELEMENT_THEORY = SGP/SGP4

EPOCH          = 2026-02-06T15:06:32.623200
MEAN_MOTION    = 15.09777198
ECCENTRICITY   = .00098454
INCLINATION    = 30.9980
RA_OF_ASC_NODE = 196.9497
ARG_OF_PERICENTER = 20.3428
MEAN_ANOMALY   = 339.7601

EPHEMERIS_TYPE = 0
CLASSIFICATION_TYPE = U
NORAD_CAT_ID   = 41337
ELEMENT_SET_NO = 999
REV_AT_EPOCH   = 54753
BSTAR          = .26847289E-3
MEAN_MOTION_DOT = .4541E-4
MEAN_MOTION_DDOT = 0

CCSDS_OMM_VERS = 2.0
CREATION_DATE  = 
ORIGINATOR     = 

OBJECT_NAME    = HXMT (HUIYAN)
OBJECT_ID      = 2017-034A
CENTER_NAME    = EARTH
REF_FRAME      = TEME
TIME_SYSTEM    = UTC
MEAN_ELEMENT_THEORY = SGP/SGP4

EPOCH          = 2026-02-06T21:39:39.016224
MEAN_MOTION    = 15.17057041
ECCENTRICITY   = .00310379
INCLINATION    = 43.0135
RA_OF_ASC_NODE = 187.7820
ARG_OF_PERICENTER = 37.9563
MEAN_ANOMALY   = 322.3465

EPHEMERIS_TYPE = 0
CLASSIFICATION_TYPE = U
NORAD_CAT_ID   = 42758
ELEMENT_SET_NO = 999
REV_AT_EPOCH   = 47786
BSTAR          = .45674142E-3
MEAN_MOTION_DOT = .9087E-4
MEAN_MOTION_DDOT = 0

CCSDS_OMM_VERS = 2.0
CREATION_DATE  = 
ORIGINATOR     = 

OBJECT_NAME    = CZ-2C R/B
OBJECT_ID      = 2018-054D
CENTER_NAME    = EARTH
REF_FRAME      = TEME
TIME_SYSTEM    = UTC
MEAN_ELEMENT_THEORY = SGP/SGP4

EPOCH          = 2026-02-06T13:40:53.240160
MEAN_MOTION    = 15.94764434
ECCENTRICITY   = .0013108
INCLINATION    = 35.1293
RA_OF_ASC_NODE = 157.6454
ARG_OF_PERICENTER = 0.8200
MEAN_ANOMALY   = 359.2560

EPHEMERIS_TYPE = 0
CLASSIFICATION_TYPE = U
NORAD_CAT_ID   = 43521
ELEMENT_SET_NO = 999
REV_AT_EPOCH   = 42390
BSTAR          = .80127E-3
MEAN_MOTION_DOT = .324769E-2
MEAN_MOTION_DDOT = .41408E-4

CCSDS_OMM_VERS = 2.0
CREATION_DATE  = 
ORIGINATOR     = 

OBJECT_NAME    = SAOCOM 1A
OBJECT_ID      = 2018-076A
CENTER_NAME    = EARTH
REF_FRAME      = TEME
TIME_SYSTEM    = UTC
MEAN_ELEMENT_THEORY = SGP/SGP4

EPOCH          = 2026-02-06T23:24:57.553632
MEAN_MOTION    = 14.82157510
ECCENTRICITY   = .00014166
INCLINATION    = 97.8865
RA_OF_ASC_NODE = 226.5842
ARG_OF_PERICENTER = 82.5373
MEAN_ANOMALY   = 277.6001

EPHEMERIS_TYPE = 0
CLASSIFICATION_TYPE = U
NORAD_CAT_ID   = 43641
ELEMENT_SET_NO = 999
REV_AT_EPOCH   = 39681
BSTAR          = .9954173E-4
MEAN_MOTION_DOT = .74E-5
MEAN_MOTION_DDOT = 0

CCSDS_OMM_VERS = 2.0
CREATION_DATE  = 
ORIGINATOR     = 

OBJECT_NAME    = H-2A R/B
OBJECT_ID      = 2018-084L
CENTER_NAME    = EARTH
REF_FRAME      = TEME
TIME_SYSTEM    = UTC
MEAN_ELEMENT_THEORY = SGP/SGP4

EPOCH          = 2026-02-06T13:22:40.005408
MEAN_MOTION    = 15.39977161
ECCENTRICITY   = .0026318
INCLINATION    = 98.8758
RA_OF_ASC_NODE = 248.3246
ARG_OF_PERICENTER = 130.0322
MEAN_ANOMALY   = 230.3234

EPHEMERIS_TYPE = 0
CLASSIFICATION_TYPE = U
NORAD_CAT_ID   = 43682
ELEMENT_SET_NO = 999
REV_AT_EPOCH   = 40098
BSTAR          = .60416E-3
MEAN_MOTION_DOT = .24319E-3
MEAN_MOTION_DDOT = 0

CCSDS_OMM_VERS = 2.0
CREATION_DATE  = 
ORIGINATOR     = 

OBJECT_NAME    = SAOCOM 1B
OBJECT_ID      = 2020-059A
CENTER_NAME    = EARTH
REF_FRAME      = TEME
TIME_SYSTEM    = UTC
MEAN_ELEMENT_THEORY = SGP/SGP4

EPOCH          = 2026-02-06T22:32:44.444256
MEAN_MOTION    = 14.82164260
ECCENTRICITY   = .00013528
INCLINATION    = 97.8862
RA_OF_ASC_NODE = 225.6466
ARG_OF_PERICENTER = 84.7239
MEAN_ANOMALY   = 275.4129

EPHEMERIS_TYPE = 0
CLASSIFICATION_TYPE = U
NORAD_CAT_ID   = 46265
ELEMENT_SET_NO = 999
REV_AT_EPOCH   = 29419
BSTAR          = .16003645E-3
MEAN_MOTION_DOT = .1222E-4
MEAN_MOTION_DDOT = 0

CCSDS_OMM_VERS = 2.0
CREATION_DATE  = 
ORIGINATOR     = 

OBJECT_NAME    = CSS (TIANHE)
OBJECT_ID      = 2021-035A
CENTER_NAME    = EARTH
REF_FRAME      = TEME
TIME_SYSTEM    = UTC
MEAN_ELEMENT_THEORY = SGP/SGP4

EPOCH          = 2026-02-06T11:21:45.182304
MEAN_MOTION    = 15.59287012
ECCENTRICITY   = .00053968
INCLINATION    = 41.4680
RA_OF_ASC_NODE = 37.9008
ARG_OF_PERICENTER = 13.3696
MEAN_ANOMALY   = 346.7284

EPHEMERIS_TYPE = 0
CLASSIFICATION_TYPE = U
NORAD_CAT_ID   = 48274
ELEMENT_SET_NO = 999
REV_AT_EPOCH   = 27273
BSTAR          = .28124092E-3
MEAN_MOTION_DOT = .22506E-3
MEAN_MOTION_DDOT = 0

CCSDS_OMM_VERS = 2.0
CREATION_DATE  = 
ORIGINATOR     = 

OBJECT_NAME    = COSMOS 2550
OBJECT_ID      = 2021-056A
CENTER_NAME    = EARTH
REF_FRAME      = TEME
TIME_SYSTEM    = UTC
MEAN_ELEMENT_THEORY = SGP/SGP4

EPOCH          = 2026-02-06T13:02:58.392096
MEAN_MOTION    = 15.33839713
ECCENTRICITY   = .00082935
INCLINATION    = 67.1450
RA_OF_ASC_NODE = 135.1427
ARG_OF_PERICENTER = 269.6046
MEAN_ANOMALY   = 90.4158

EPHEMERIS_TYPE = 0
CLASSIFICATION_TYPE = U
NORAD_CAT_ID   = 48865
ELEMENT_SET_NO = 999
REV_AT_EPOCH   = 25868
BSTAR          = .17479774E-3
MEAN_MOTION_DOT = .5565E-4
MEAN_MOTION_DDOT = 0

CCSDS_OMM_VERS = 2.0
CREATION_DATE  = 
ORIGINATOR     = 

OBJECT_NAME    = CZ-2C R/B
OBJECT_ID      = 2022-058K
CENTER_NAME    = EARTH
REF_FRAME      = TEME
TIME_SYSTEM    = UTC
MEAN_ELEMENT_THEORY = SGP/SGP4

EPOCH          = 2026-02-06T13:33:42.854112
MEAN_MOTION    = 15.52055897
ECCENTRICITY   = .0042299
INCLINATION    = 50.1885
RA_OF_ASC_NODE = 118.1246
ARG_OF_PERICENTER = 68.7202
MEAN_ANOMALY   = 291.8277

EPHEMERIS_TYPE = 0
CLASSIFICATION_TYPE = U
NORAD_CAT_ID   = 52794
ELEMENT_SET_NO = 999
REV_AT_EPOCH   = 20529
BSTAR          = .58001E-3
MEAN_MOTION_DOT = .36716E-3
MEAN_MOTION_DDOT = 0

